NORAD_CAT_ID,OBJECT_NAME,OBJECT_TYPE,EPOCH,MEAN_MOTION,ECCENTRICITY,INCLINATION,RA_OF_ASC_NODE,ARG_OF_PERICENTER,MEAN_ANOMALY,BSTAR,MEAN_MOTION_DOT,MEAN_MOTION_DDOT,TLE_LINE0,TLE_LINE1,TLE_LINE2,SEMIMAJOR_AXIS,PERIOD,APOGEE,PERIGEE,DECAYED
55279.0,STARLINK-5323,PAYLOAD,2024-08-17 21:08:08,14.98335352,0.0002738,69.9998,38.6316,272.4143,87.6703,-5.3834e-05,-7.35e-06,0.0,0 STARLINK-5323,1 55279U 23010L   24230.88065631 -.00000735  00000-0 -53834-4 0  9996,2 55279  69.9998  38.6316 0002738 272.4143  87.6703 14.98335352 87582,6950.176,96.107,573.944,570.138,0.0
55279.0,STARLINK-5323,PAYLOAD,2024-08-18 13:09:28,14.98337946,0.0003043,70.0005,36.949,269.8935,90.1876,2.5876e-05,2.16e-06,0.0,0 STARLINK-5323,1 55279U 23010L   24231.54824794  .00000216  00000-0  25876-4 0  9990,2 55279  70.0005  36.9490 0003043 269.8935  90.1876 14.98337946 87364,6950.168,96.106,574.148,569.918,0.0
55279.0,STARLINK-5323,PAYLOAD,2024-08-18 21:10:08,14.98336969,0.0003062,70.0003,36.1073,268.537,91.5438,0.00015415,1.747e-05,0.0,0 STARLINK-5323,1 55279U 23010L   24231.88204374  .00001747  00000-0  15415-3 0  9990,2 55279  70.0003  36.1073 0003062 268.5370  91.5438 14.98336969 87735,6950.171,96.107,574.164,569.908,0.0
55279.0,STARLINK-5323,PAYLOAD,2024-08-20 03:36:42,14.98332651,0.0003028,70.0006,32.9092,267.9533,92.1279,3.7918e-05,3.59e-06,0.0,0 STARLINK-5323,1 55279U 23010L   24233.15048762  .00000359  00000-0  37918-4 0  9990,2 55279  70.0006  32.9092 0003028 267.9533  92.1279 14.98332651 87609,6950.185,96.107,574.154,569.945,0.0
55279.0,STARLINK-5323,PAYLOAD,2024-08-20 14:49:38,14.98332975,0.0003006,70.0007,31.7312,266.2887,93.7929,4.25e-06,-4.2e-07,0.0,0 STARLINK-5323,1 55279U 23010L   24233.61780744 -.00000042  00000-0  42500-5 0  9998,2 55279  70.0007  31.7312 0003006 266.2887  93.7929 14.98332975 87992,6950.184,96.107,574.138,569.959,0.0
55279.0,STARLINK-5323,PAYLOAD,2024-08-21 11:39:23,14.98328271,0.0002818,70.001,29.542,270.1048,89.9788,2.6354e-05,2.21e-06,0.0,0 STARLINK-5323,1 55279U 23010L   24234.48568995  .00000221  00000-0  26354-4 0  9992,2 55279  70.0010  29.5420 0002818 270.1048  89.9788 14.98328271 87808,6950.198,96.107,574.022,570.105,0.0
55279.0,STARLINK-5323,PAYLOAD,2024-08-21 14:51:39,14.98327709,0.0002834,70.001,29.2055,269.5956,90.4878,1.9085e-05,1.35e-06,0.0,0 STARLINK-5323,1 55279U 23010L   24234.61921050  .00000135  00000-0  19085-4 0  9999,2 55279  70.0010  29.2055 0002834 269.5956  90.4878 14.98327709 88147,6950.2,96.107,574.035,570.095,0.0
55279.0,STARLINK-5323,PAYLOAD,2024-08-21 21:16:11,14.98328669,0.0002837,70.0011,28.5322,267.6949,92.3885,2.7225e-05,2.32e-06,0.0,0 STARLINK-5323,1 55279U 23010L   24234.88624984  .00000232  00000-0  27225-4 0  9997,2 55279  70.0011  28.5322 0002837 267.6949  92.3885 14.98328669 88180,6950.197,96.107,574.034,570.09,0.0
